{
"type": "FeatureCollection",
"name": "AboveGroundCreekLocation_LittleLandslideInteraction",
"crs": { "type": "name", "properties": { "name": "urn:ogc:def:crs:OGC:1.3:CRS84" } },
"features": [
{ "type": "Feature", "properties": { "id": 1, "label": "Creek location along this length largely unchanged post landslide" }, "geometry": { "type": "MultiLineString", "coordinates": [ [ [ 151.709069565993332, -32.923926519130049 ], [ 151.709069565993332, -32.923926519130049 ], [ 151.709034542788089, -32.923797202679893 ], [ 151.708887112202859, -32.923628277372707 ], [ 151.708863815404328, -32.923608317737724 ], [ 151.708786491921245, -32.923579612264973 ], [ 151.708660044205175, -32.923559442690625 ], [ 151.708627453087132, -32.923543878633673 ], [ 151.708546111943633, -32.923522773904551 ], [ 151.70849184450509, -32.923504830611058 ], [ 151.708451958293125, -32.923486070433597 ], [ 151.708403407774028, -32.923455110682291 ], [ 151.708369633499871, -32.92342837271525 ], [ 151.708345710055681, -32.923417114623867 ], [ 151.708345710055681, -32.923417114623867 ], [ 151.708324601134336, -32.923423447300273 ], [ 151.708307010366553, -32.923419929146718 ], [ 151.708294345013741, -32.923410781947467 ], [ 151.708265496154581, -32.923387562133989 ] ] ] } },
{ "type": "Feature", "properties": { "id": 3, "label": "Above ground creek location upstream of landslide" }, "geometry": { "type": "MultiLineString", "coordinates": [ [ [ 151.707758358886537, -32.923227104027582 ], [ 151.707742901192603, -32.923219154356417 ], [ 151.707722585366326, -32.923214737872442 ], [ 151.707699178001263, -32.92321076303687 ], [ 151.707631164148097, -32.92319972182694 ], [ 151.707630280851305, -32.92319972182694 ], [ 151.707575190954174, -32.923191239956331 ], [ 151.707536531073117, -32.923177064666611 ], [ 151.707508180493676, -32.923192528619033 ], [ 151.70745109245135, -32.923196152067149 ], [ 151.707409597796982, -32.92317642033526 ], [ 151.707361157768503, -32.923181617168915 ], [ 151.707258505049708, -32.923157089528139 ], [ 151.707159078619668, -32.923100421692425 ], [ 151.707065458125157, -32.923080805969761 ], [ 151.706997694719576, -32.923055840504553 ], [ 151.706935281056559, -32.923030875039345 ], [ 151.706935281056559, -32.923030875039345 ], [ 151.706916085365663, -32.923029432975923 ], [ 151.706897564492408, -32.923035809014252 ], [ 151.706877325512323, -32.923031766663101 ], [ 151.70685779015804, -32.92304097056909 ], [ 151.706835322213465, -32.923042185052587 ], [ 151.706809818060123, -32.923045524882184 ], [ 151.706778791268306, -32.923043497464455 ], [ 151.706727116832667, -32.923051179170038 ], [ 151.706536498977187, -32.923030247081805 ] ] ] } }
]
}
