{
"type": "FeatureCollection",
"name": "AboveGroundCreekLocationPostLandslide",
"crs": { "type": "name", "properties": { "name": "urn:ogc:def:crs:OGC:1.3:CRS84" } },
"features": [
{ "type": "Feature", "properties": { "id": 2, "label": "The above ground creek location post landslide with visible landslide interaction" }, "geometry": { "type": "MultiLineString", "coordinates": [ [ [ 151.708265496145799, -32.92338756216089 ], [ 151.70825937193564, -32.923383479520837 ], [ 151.708247180646651, -32.923377683662125 ], [ 151.708226195640975, -32.923368690088267 ], [ 151.708191220631534, -32.92335789779964 ], [ 151.708186485508946, -32.923359708658062 ], [ 151.708172904419001, -32.923354394318523 ], [ 151.708158437605817, -32.923346127568138 ], [ 151.708130389702717, -32.923332251237127 ], [ 151.708130389702717, -32.923332251237127 ], [ 151.708114741925215, -32.923326051174335 ], [ 151.708092303602712, -32.923313355807664 ], [ 151.708076360584101, -32.923308631950299 ], [ 151.708057465154639, -32.92330302236968 ], [ 151.70800234698487, -32.9232883223249 ], [ 151.707939779267946, -32.923282760750062 ], [ 151.707913014189046, -32.923279979962643 ], [ 151.707886977017893, -32.923286049805128 ], [ 151.707857590229736, -32.923281851692536 ], [ 151.707821673044208, -32.923266925069981 ], [ 151.707777702767004, -32.923240992133749 ], [ 151.707758370744813, -32.923227112733201 ] ] ] } }
]
}
