{
"type": "FeatureCollection",
"name": "Hunter_Water_DBYDs_Points",
"crs": { "type": "name", "properties": { "name": "urn:ogc:def:crs:OGC:1.3:CRS84" } },
"features": [
{ "type": "Feature", "properties": { "id": 1, "label": "Manhole" }, "geometry": { "type": "MultiPoint", "coordinates": [ [ 151.70704337187135, -32.922945911020243 ] ] } },
{ "type": "Feature", "properties": { "id": 2, "label": "Manhole" }, "geometry": { "type": "MultiPoint", "coordinates": [ [ 151.707103262482576, -32.922645210242962 ] ] } },
{ "type": "Feature", "properties": { "id": 3, "label": "Junction connection" }, "geometry": { "type": "MultiPoint", "coordinates": [ [ 151.707062578945994, -32.922847143518219 ] ] } },
{ "type": "Feature", "properties": { "id": 4, "label": "Junction connection" }, "geometry": { "type": "MultiPoint", "coordinates": [ [ 151.707243436543479, -32.922664752152514 ] ] } },
{ "type": "Feature", "properties": { "id": 5, "label": "Manhole" }, "geometry": { "type": "MultiPoint", "coordinates": [ [ 151.707436542089084, -32.922638755799056 ] ] } },
{ "type": "Feature", "properties": { "id": 7, "label": "Junction connection" }, "geometry": { "type": "MultiPoint", "coordinates": [ [ 151.707634512322926, -32.92259887701438 ] ] } },
{ "type": "Feature", "properties": { "id": 8, "label": "Dead end" }, "geometry": { "type": "MultiPoint", "coordinates": [ [ 151.707742577111162, -32.922577127251088 ] ] } },
{ "type": "Feature", "properties": { "id": 9, "label": "H&V bend" }, "geometry": { "type": "MultiPoint", "coordinates": [ [ 151.707285350991668, -32.923037431327316 ] ] } },
{ "type": "Feature", "properties": { "id": 10, "label": "Manhole" }, "geometry": { "type": "MultiPoint", "coordinates": [ [ 151.707518528558722, -32.923124658169478 ] ] } },
{ "type": "Feature", "properties": { "id": 11, "label": "Overflow" }, "geometry": { "type": "MultiPoint", "coordinates": [ [ 151.707531273307922, -32.923176220259393 ] ] } },
{ "type": "Feature", "properties": { "id": 12, "label": "Manhole (locations are approximate)" }, "geometry": { "type": "MultiPoint", "coordinates": [ [ 151.707865191997769, -32.923179408858921 ] ] } },
{ "type": "Feature", "properties": { "id": 13, "label": "Dead end" }, "geometry": { "type": "MultiPoint", "coordinates": [ [ 151.708236368576848, -32.922677834561192 ] ] } },
{ "type": "Feature", "properties": { "id": 14, "label": "Manhole" }, "geometry": { "type": "MultiPoint", "coordinates": [ [ 151.70831887211088, -32.923248748884134 ] ] } },
{ "type": "Feature", "properties": { "id": 15, "label": "Manhole" }, "geometry": { "type": "MultiPoint", "coordinates": [ [ 151.708370195050406, -32.923058998909347 ] ] } },
{ "type": "Feature", "properties": { "id": 16, "label": "Junction connection" }, "geometry": { "type": "MultiPoint", "coordinates": [ [ 151.708369721568829, -32.923060811119257 ] ] } },
{ "type": "Feature", "properties": { "id": 17, "label": "Junction connection" }, "geometry": { "type": "MultiPoint", "coordinates": [ [ 151.708497137537393, -32.923291773717196 ] ] } },
{ "type": "Feature", "properties": { "id": 18, "label": "Manhole" }, "geometry": { "type": "MultiPoint", "coordinates": [ [ 151.708728359718265, -32.923347625626477 ] ] } },
{ "type": "Feature", "properties": { "id": 19, "label": "Junction connection" }, "geometry": { "type": "MultiPoint", "coordinates": [ [ 151.708912157437425, -32.923525488605144 ] ] } },
{ "type": "Feature", "properties": { "id": 21, "label": "Manhole" }, "geometry": { "type": "MultiPoint", "coordinates": [ [ 151.708951001819571, -32.923565485411395 ] ] } },
{ "type": "Feature", "properties": { "id": 22, "label": "Junction connection" }, "geometry": { "type": "MultiPoint", "coordinates": [ [ 151.709270001511385, -32.923603261690687 ] ] } },
{ "type": "Feature", "properties": { "id": 23, "label": "Junction connection" }, "geometry": { "type": "MultiPoint", "coordinates": [ [ 151.709435109705169, -32.923624802169243 ] ] } },
{ "type": "Feature", "properties": { "id": 24, "label": "Junction connection" }, "geometry": { "type": "MultiPoint", "coordinates": [ [ 151.70959763438529, -32.923645051145783 ] ] } },
{ "type": "Feature", "properties": { "id": 25, "label": "Junction connection" }, "geometry": { "type": "MultiPoint", "coordinates": [ [ 151.709810028752372, -32.923672588506619 ] ] } },
{ "type": "Feature", "properties": { "id": 30, "label": "Manhole" }, "geometry": { "type": "MultiPoint", "coordinates": [ [ 151.709947338465128, -32.923687962953217 ] ] } },
{ "type": "Feature", "properties": { "id": 31, "label": "Dead end" }, "geometry": { "type": "MultiPoint", "coordinates": [ [ 151.709242856657767, -32.92287994040376 ] ] } },
{ "type": "Feature", "properties": { "id": 32, "label": "Manhole" }, "geometry": { "type": "MultiPoint", "coordinates": [ [ 151.70918512631286, -32.923180062833993 ] ] } },
{ "type": "Feature", "properties": { "id": 33, "label": "Manhole" }, "geometry": { "type": "MultiPoint", "coordinates": [ [ 151.709181594363798, -32.923189873803629 ] ] } },
{ "type": "Feature", "properties": { "id": 34, "label": "Junction connection" }, "geometry": { "type": "MultiPoint", "coordinates": [ [ 151.709192059398077, -32.923195367946626 ] ] } },
{ "type": "Feature", "properties": { "id": 36, "label": "Junction connection" }, "geometry": { "type": "MultiPoint", "coordinates": [ [ 151.709193367527348, -32.923144089278665 ] ] } },
{ "type": "Feature", "properties": { "id": 37, "label": "Manhole" }, "geometry": { "type": "MultiPoint", "coordinates": [ [ 151.709824927321193, -32.923285150785226 ] ] } }
]
}
