{
"type": "FeatureCollection",
"name": "The2022Landslide_ApproximateLocation",
"crs": { "type": "name", "properties": { "name": "urn:ogc:def:crs:OGC:1.3:CRS84" } },
"features": [
{ "type": "Feature", "properties": { "id": 1, "label": "area" }, "geometry": { "type": "MultiPolygon", "coordinates": [ [ [ [ 151.708420361952761, -32.922754054271742 ], [ 151.708469192624818, -32.922774260067094 ], [ 151.708501185134139, -32.92282645837178 ], [ 151.708507078491181, -32.922861818513667 ], [ 151.708502868950404, -32.922903913920656 ], [ 151.708459089727143, -32.922978001836981 ], [ 151.708410259055, -32.923052089753313 ], [ 151.708339538771241, -32.923141332016151 ], [ 151.708245245059544, -32.923235625727834 ], [ 151.708225039264192, -32.923267618237155 ], [ 151.708194730571222, -32.92330045265463 ], [ 151.708155160888651, -32.923296243113931 ], [ 151.708100436859468, -32.923274353502272 ], [ 151.707998565974606, -32.923245728625531 ], [ 151.707925319966421, -32.923249938166229 ], [ 151.707870595937322, -32.923242781947046 ], [ 151.707831026254723, -32.923228890462724 ], [ 151.707827658622165, -32.923192688412705 ], [ 151.707843233922773, -32.923153960638267 ], [ 151.707866386396603, -32.923109339506844 ], [ 151.707907639895495, -32.923043670671916 ], [ 151.707971624914109, -32.92297631802073 ], [ 151.708020455586251, -32.922922435899771 ], [ 151.708072653890923, -32.922867711870666 ], [ 151.708148425623534, -32.922809620209009 ], [ 151.708216620182867, -32.922765840985726 ], [ 151.708325226332931, -32.922733848476405 ], [ 151.708420361952761, -32.922754054271742 ] ] ] ] } }
]
}
