{
"type": "FeatureCollection",
"name": "The2025LandslideLocation_BasedOnObservationsOnly",
"crs": { "type": "name", "properties": { "name": "urn:ogc:def:crs:OGC:1.3:CRS84" } },
"features": [
{ "type": "Feature", "properties": { "id": 1, "label": "Landslide2025" }, "geometry": { "type": "MultiPolygon", "coordinates": [ [ [ [ 151.707756940591025, -32.923226565171326 ], [ 151.707742717551952, -32.923216881400052 ], [ 151.707708521734617, -32.923205079303798 ], [ 151.707677654713649, -32.923194487678963 ], [ 151.707602302868366, -32.923167554690089 ], [ 151.707588027749694, -32.923158988670906 ], [ 151.707579415595887, -32.923142426836691 ], [ 151.707579415595887, -32.923112615535089 ], [ 151.707579415595887, -32.92309472875413 ], [ 151.707584052909482, -32.923063592505798 ], [ 151.707593327536642, -32.923008607216182 ], [ 151.707625042847809, -32.922935699398238 ], [ 151.708107197701167, -32.922669016360892 ], [ 151.70820269541926, -32.922650306022298 ], [ 151.708245753127272, -32.922660091865026 ], [ 151.708245753127272, -32.922660091865026 ], [ 151.708265324812743, -32.922681620719032 ], [ 151.708329911374761, -32.922691406561768 ], [ 151.708363183240067, -32.922675749213397 ], [ 151.708363183240067, -32.922675749213397 ], [ 151.708392540768244, -32.922672813460579 ], [ 151.708418152907001, -32.922684224003881 ], [ 151.708438918996194, -32.92268640990801 ], [ 151.708503403167953, -32.922671108579117 ], [ 151.708597397045452, -32.922684224003881 ], [ 151.708615977230522, -32.922703897141027 ], [ 151.708701227491503, -32.922712640757538 ], [ 151.708701227491503, -32.922712640757538 ], [ 151.708844404211845, -32.922725756182302 ], [ 151.708923096760458, -32.922733406846746 ], [ 151.709080636666471, -32.922776382031579 ], [ 151.709202524459528, -32.922803939271745 ], [ 151.709326532040279, -32.922851634495117 ], [ 151.709505654101349, -32.923055134114819 ], [ 151.709665642299825, -32.923279083843667 ], [ 151.709683385841032, -32.923393202117474 ], [ 151.709611899566283, -32.923667605995547 ], [ 151.70945057270805, -32.923732470915304 ], [ 151.709307496776177, -32.92381442703163 ], [ 151.709181202150006, -32.923890989955588 ], [ 151.709129222540923, -32.923906237307584 ], [ 151.709064756773245, -32.923875278174087 ], [ 151.709035026773591, -32.923800953174975 ], [ 151.708976569019171, -32.92372367961157 ], [ 151.708927183996622, -32.923652071328874 ], [ 151.70888211007923, -32.923588877859039 ], [ 151.708849979677382, -32.923571787219757 ], [ 151.708819216526678, -32.923562216461761 ], [ 151.708792555129378, -32.923562900087333 ], [ 151.708769995485511, -32.923562216461768 ], [ 151.708746410403307, -32.923567001840766 ], [ 151.708722089919036, -32.923568536517536 ], [ 151.708696706664853, -32.923566815618948 ], [ 151.708660998019155, -32.923561652923183 ], [ 151.708631742743137, -32.923544443937296 ], [ 151.708603575385439, -32.92352850517576 ], [ 151.70857276950818, -32.923520515301902 ], [ 151.708550167137673, -32.923518293518804 ], [ 151.708517694923017, -32.92349744293886 ], [ 151.708439419795042, -32.923435916637381 ], [ 151.708380627995837, -32.923410964303997 ], [ 151.70834849759396, -32.923391139162412 ], [ 151.708335508708103, -32.923387721034551 ], [ 151.708308847310775, -32.923380201153265 ], [ 151.708287654918053, -32.923382252029988 ], [ 151.708250739137156, -32.923392164600777 ], [ 151.708177591201064, -32.923391139162398 ], [ 151.708104443264858, -32.923378150276534 ], [ 151.707989594168765, -32.923346019874671 ], [ 151.707805015264341, -32.923271504687335 ], [ 151.707756940591025, -32.923226565171326 ] ] ] ] } }
]
}
